[
  {
    "status": "wiki-deprecated",
    "old": {"aerialway": "canopy"},
    "replace": {"aerialway": "zip_line"}
  },
  {
    "old": {"aeroway": "aerobridge"},
    "replace": {"aeroway": "jet_bridge", "highway": "corridor"}
  },
  {
    "status": "typo",
    "old": {"access": "customer"},
    "replace": {"access": "customers"}
  },
  {
    "status": "wiki-deprecated",
    "old": {"access": "public"},
    "replace": {"access": "yes"}
  },
  {
    "old": {"aerodrome:type": "military"},
    "replace": {"military": "airfield"}
  },
  {
    "status": "wiki-deprecated",
    "old": {"amenity": "advertising"},
    "replace": {"advertising": "*"}
  },
  {
    "status": "wiki-deprecated",
    "old": {"amenity": "artwork"},
    "replace": {"tourism": "artwork"}
  },
  {
    "old": {"amenity": "bail_bonds"},
    "replace": {"office": "bail_bond_agent"}
  },
  {
    "status": "wiki-deprecated",
    "old": {"amenity": "car_repair"},
    "replace": {"shop": "car_repair"}
  },
  {
    "status": "wiki-deprecated",
    "old": {"amenity": "changing_room"},
    "replace": {"amenity": "dressing_room"}
  },
  {
    "status": "wiki-deprecated",
    "old": {"amenity": "citymap_post"},
    "replace": {"tourism": "information"}
  },
  {
    "status": "wiki-deprecated",
    "old": {"amenity": "club"},
    "replace": {"club": "*"}
  },
  {
    "status": "wiki-deprecated",
    "old": {"amenity": "community_center"},
    "replace": {"amenity": "community_centre"}
  },
  {
    "status": "wiki-deprecated",
    "old": {"amenity": "dog_bin"},
    "replace": {"amenity": "waste_basket", "waste": "dog_excrement"}
  },
  {
    "status": "wiki-deprecated",
    "old": {"amenity": "dog_waste_bin"},
    "replace": {"amenity": "waste_basket", "waste": "dog_excrement"}
  },
  {
    "status": "wiki-deprecated",
    "old": {"amenity": "embassy"},
    "replace": {"office": "diplomatic"}
  },
  {
    "status": "wiki-deprecated",
    "old": {"amenity": "ev_charging"},
    "replace": {"amenity": "charging_station"}
  },
  {
     "old": {"amenity": "charging_station", "car": "*"},
     "replace": {"amenity": "charging_station", "motorcar": "$1"}
  },
  {
    "status": "wiki-deprecated",
    "old": {"amenity": "fire_hydrant"},
    "replace": {"emergency": "fire_hydrant"}
  },
  {
    "old": {"amenity": "garage"},
    "replace": {"landuse": "garages"}
  },
  {
    "status": "wiki-deprecated",
    "old": {"amenity": "garages"},
    "replace": {"landuse": "garages"}
  },
  {
    "status": "wiki-deprecated",
    "old": {"amenity": "gym"},
    "replace": {"leisure": "fitness_centre"}
  },
  {
    "status": "wiki-deprecated",
    "old": {"amenity": "hotel"},
    "replace": {"tourism": "hotel"}
  },
  {
    "status": "wiki-deprecated",
    "old": {"amenity": "kiosk"},
    "replace": {"shop": "kiosk"}
  },
  {
    "status": "wiki-deprecated",
    "old": {"amenity": "lifeboat_station"},
    "replace": {"emergency": "water_rescue"}
  },
  {
    "old": {"amenity": "notice_board"},
    "replace": {"advertising": "board"}
  },
  {
    "status": "wiki-deprecated",
    "old": {"amenity": "nursery"},
    "replace": {"amenity": "kindergarten"}
  },
  {
    "status": "wiki-deprecated",
    "old": {"amenity": "preschool"},
    "replace": {"amenity": "kindergarten", "preschool": "yes"}
  },
  {
    "status": "wiki-deprecated",
    "old": {"amenity": "public_building"},
    "replace": {"building": "public"}
  },
  {
    "status": "wiki-deprecated",
    "old": {"amenity": "register_office"},
    "replace": {"office": "government", "government": "register_office"}
  },
  {
    "old": {"amenity": "research_institution"},
    "replace": {"amenity": "research_institute"}
  },
  {
    "status": "wiki-deprecated",
    "old": {"amenity": "sauna"},
    "replace": {"leisure": "sauna"}
  },
  {
    "old": {"amenity": "scrapyard"},
    "replace": {"landuse": "industrial", "industrial": "scrap_yard"}
  },
  {
    "status": "wiki-deprecated",
    "old": {"amenity": "shop"},
    "replace": {"shop": "*"}
  },
  {
    "status": "wiki-deprecated",
    "old": {"amenity": "swimming_pool"},
    "replace": {"leisure": "swimming_pool"}
  },
  {
    "status": "wiki-deprecated",
    "old": {"amenity": "ticket_booth"},
    "replace": {"shop": "ticket"}
  },
  {
    "status": "typo",
    "old": {"amenity": "toilet"},
    "replace": {"amenity": "toilets"}
  },
  {
    "status": "wiki-deprecated",
    "reference": {
      "key": "vending",
      "value": "parcel_pickup"
    },
    "old": {"amenity": "vending_machine", "vending": "parcel_pickup"},
    "replace": {"amenity": "parcel_locker"}
  },
  {
    "status": "wiki-deprecated",
    "reference": {
      "key": "vending",
      "value": "parcel_pickup"
    },
    "old": {"amenity": "vending_machine", "vending": "parcel_mail_in;parcel_pickup"},
    "replace": {"amenity": "parcel_locker", "parcel_mail_in": "yes"}
  },
  {
    "status": "wiki-deprecated",
    "reference": {
      "key": "vending",
      "value": "parcel_pickup"
    },
    "old": {"amenity": "vending_machine", "vending": "parcel_pickup;parcel_mail_in"},
    "replace": {"amenity": "parcel_locker", "parcel_mail_in": "yes"}
  },
  {
    "status": "wiki-deprecated",
    "old": {"amenity": "winery"},
    "replace": {"craft": "winery"}
  },
  {
    "old": {"amenity": "youth_center"},
    "replace": {"amenity": "community_centre", "community_centre": "youth_centre"}
  },
  {
    "status": "wiki-deprecated",
    "old": {"amenity": "youth_centre"},
    "replace": {"amenity": "community_centre", "community_centre": "youth_centre"}
  },
  {
    "old": {"artwork": "*"},
    "replace": {"artwork_type": "$1"}
  },
  {
    "old": {"attraction": "ferris_wheel"},
    "replace": {"attraction": "big_wheel"}
  },
  {
    "old": {"barrier": "chicane"},
    "replace": {"barrier": "cycle_barrier"}
  },
  {
    "status": "wiki-deprecated",
    "old": {"barrier": "curb"},
    "replace": {"barrier": "kerb"}
  },
  {
    "status": "wiki-deprecated",
    "old": {"barrier": "embankment"},
    "replace": {"man_made": "embankment"}
  },
  {
    "old": {"barrier": "railing"},
    "replace": {"barrier": "fence", "fence_type": "railing"}
  },
  {
    "old": {"barrier": "wall", "type": "noise_barrier"},
    "replace": {"barrier": "wall", "wall": "noise_barrier"}
  },
  {
    "status": "wiki-deprecated",
    "old": {"barrier": "wire_fence"},
    "replace": {"barrier": "fence", "fence_type": "wire"}
  },
  {
    "status": "wiki-deprecated",
    "old": {"barrier": "wood_fence"},
    "replace": {"barrier": "fence", "fence_type": "wood"}
  },
  {
    "old": {"bicycle:oneway": "*"},
    "replace": {"oneway:bicycle": "$1"}
  },
  {
    "old": {"bridge": "1"},
    "replace": {"bridge": "yes"}
  },
  {
    "old": {"bridge": "true"},
    "replace": {"bridge": "yes"}
  },
  {
    "old": {"building": "apartment"},
    "replace": {"building": "apartments"}
  },
  {
    "old": {"building": "building"},
    "replace": {"building": "yes"}
  },
  {
    "old": {"building": "Building"},
    "replace": {"building": "yes"}
  },
  {
    "status": "typo",
    "old": {"building": "comercial"},
    "replace": {"building": "commercial"}
  },
  {
    "old": {"building": "convenience"},
    "replace": {"building": "retail"}
  },
  {
    "old": {"building": "detached_house"},
    "replace": {"building": "detached"}
  },
  {
    "status": "wiki-deprecated",
    "old": {"building": "entrance"},
    "replace": {"entrance": "*"}
  },
  {
    "old": {"building": "home"},
    "replace": {"building": "house"}
  },
  {
    "old": {"building": "House"},
    "replace": {"building": "house"}
  },
  {
    "status": "typo",
    "old": {"building": "offices"},
    "replace": {"building": "office"}
  },
  {
    "status": "wiki-deprecated",
    "old": {"building": "other"},
    "replace": {"building": "yes"}
  },
  {
    "old": {"building": "oui"},
    "replace": {"building": "yes"}
  },
  {
    "old": {"building": "OUI"},
    "replace": {"building": "yes"}
  },
  {
    "old": {"building": "part"},
    "replace": {"building:part": "yes"}
  },
  {
    "status": "typo",
    "old": {"building": "pavillion"},
    "replace": {"building": "pavilion"}
  },
  {
    "old": {"building": "railway_station"},
    "replace": {"building": "train_station"}
  },
  {
    "status": "typo",
    "old": {"building": "Residential"},
    "replace": {"building": "residential"}
  },
  {
    "status": "typo",
    "old": {"building": "services"},
    "replace": {"building": "service"}
  },
  {
    "old": {"building": "shop"},
    "replace": {"building": "retail"}
  },
  {
    "old": {"building": "shops"},
    "replace": {"building": "retail"}
  },
  {
    "old": {"building": "Si"},
    "replace": {"building": "yes"}
  },
  {
    "old": {"building": "under construction"},
    "replace": {"building": "construction"}
  },
  {
    "status": "typo",
    "old": {"building": "y"},
    "replace": {"building": "yes"}
  },
  {
    "status": "typo",
    "old": {"building:color": "*"},
    "replace": {"building:colour": "$1"}
  },
  {
    "status": "wiki-deprecated",
    "old": {"building:height": "*"},
    "replace": {"height": "$1"}
  },
  {
    "status": "wiki-deprecated",
    "old": {"building:level": "*"},
    "replace": {"building:levels": "$1"}
  },
  {
    "status": "typo",
    "old": {"building:material": "Brick"},
    "replace": {"building:material": "brick"}
  },
  {
    "old": {"building:min_height": "*"},
    "replace": {"min_height": "$1"}
  },
  {
    "status": "wiki-deprecated",
    "old": {"building:roof:colour": "*"},
    "replace": {"roof:colour": "$1"}
  },
  {
    "old": {"building:roof:shape": "*"},
    "replace": {"roof:shape": "$1"}
  },
  {
    "status": "wiki-deprecated",
    "old": {"building:type": "*"},
    "replace": {"building": "$1"}
  },
  {
    "status": "wiki-deprecated",
    "old": {"camp_site": "camp_pitch"},
    "replace": {"tourism": "camp_pitch"}
  },
  {
    "status": "wiki-deprecated",
    "old": {"color": "*"},
    "replace": {"colour": "$1"}
  },
  {
    "old": {"company": "consulting"},
    "replace": {"office": "consulting"}
  },
  {
    "old": {"content": "unknown"}
  },
  {
    "status": "typo",
    "old": {"contents": "*"},
    "replace": {"content": "$1"}
  },
  {
    "status": "wiki-deprecated",
    "old": {"craft": "car_repair"},
    "replace": {"shop": "car_repair"}
  },
  {
    "old": {"craft": "catering"},
    "replace": {"craft": "caterer"}
  },
  {
    "old": {"craft": "glass"},
    "replace": {"craft": "glaziery"}
  },
  {
    "old": {"craft": "sculpter"},
    "replace": {"craft": "sculptor"}
  },
  {
    "status": "wiki-deprecated",
    "reference": {
      "key": "crossing"
    },
    "old": {"crossing": "island", "highway": "crossing"},
    "replace": {"crossing:island": "yes", "highway": "crossing"}
  },
  {
    "old": {"crossing": "traffic_lights"},
    "replace": {"crossing": "traffic_signals"}
  },
  {
    "old": {"crossing": "no", "highway": "crossing"},
    "replace": {"crossing": "no"}
  },
  {
    "status": "typo",
    "old": {"cuisine": "barbeque"},
    "replace": {"cuisine": "barbecue"}
  },
  {
    "status": "typo",
    "old": {"cuisine": "bbq"},
    "replace": {"cuisine": "barbecue"}
  },
  {
    "old": {"cuisine": "vegan"},
    "replace": {"diet:vegan": "*"}
  },
  {
    "old": {"cuisine": "vegetarian"},
    "replace": {"diet:vegetarian": "*"}
  },
  {
    "old": {"culvert": "tunnel"},
    "replace": {"tunnel": "culvert"}
  },
  {
    "old": {"culvert": "yes"},
    "replace": {"tunnel": "culvert"}
  },
  {
    "old": {"curb": "*"},
    "replace": {"kerb": "$1"}
  },
  {
    "old": {"cycleway": "none"},
    "replace": {"cycleway": "no"}
  },
  {
    "old": {"cycleway:left": "none"},
    "replace": {"cycleway:left": "no"}
  },
  {
    "old": {"cycleway:right": "none"},
    "replace": {"cycleway:right": "no"}
  },
  {
    "old": {"cycleway:both": "none"},
    "replace": {"cycleway:both": "no"}
  },
  {
    "status": "wiki-deprecated",
    "reference": {
      "key": "diaper"
    },
    "old": {"diaper": "no"},
    "replace": {"changing_table": "no"}
  },
  {
    "status": "wiki-deprecated",
    "reference": {
      "key": "diaper"
    },
    "old": {"diaper": "yes"},
    "replace": {"changing_table": "yes"}
  },
  {
    "old": {"direction": "all"},
    "replace": {"direction": "both"}
  },
  {
    "old": {"direction": "down", "highway": "*"},
    "replace": {"incline": "down", "highway": "$1"}
  },
  {
    "old": {"direction": "downhill"},
    "replace": {"incline": "down"}
  },
  {
    "old": {"direction": "East"},
    "replace": {"direction": "E"}
  },
  {
    "old": {"direction": "forward;backward"},
    "replace": {"direction": "both"}
  },
  {
    "old": {"direction": "North"},
    "replace": {"direction": "N"}
  },
  {
    "old": {"direction": "South"},
    "replace": {"direction": "S"}
  },
  {
    "old": {"direction": "up", "highway": "*"},
    "replace": {"incline": "up", "highway": "$1"}
  },
  {
    "old": {"direction": "uphill"},
    "replace": {"incline": "up"}
  },
  {
    "old": {"direction": "West"},
    "replace": {"direction": "W"}
  },
  {
    "old": {"disabled_spaces":"*"},
    "replace": {"capacity:disabled": "$1"}
  },
  {
    "status": "wiki-deprecated",
    "reference": {
      "key": "amenity",
      "value": "loading_dock"
    },
    "old": {"door": "loadingdock"},
    "replace": {"amenity": "loading_dock"}
  },
  {
    "old": {"drinkable": "*"},
    "replace": {"drinking_water": "$1"}
  },
  {
    "old": {"embankment": "false"},
    "replace": {"embankment": "no"}
  },
  {
    "old": {"embankment": "right", "man_made": "embankment"},
    "replace": {"man_made": "embankment"}
  },
  {
    "old": {"embankment": "true"},
    "replace": {"embankment": "yes"}
  },
  {
    "status": "wiki-deprecated",
    "old": {"emergency": "dry_riser_inlet"},
    "replace": {"emergency": "fire_service_inlet", "fire_mains": "dry"}
  },
  {
    "status": "wiki-deprecated",
    "old": {"emergency": "sprinkler_connection"},
    "replace": {"emergency": "fire_service_inlet", "fire_sprinkler": "yes"}
  },
  {
    "status": "wiki-deprecated",
    "old": {"emergency": "lifeguard_base"},
    "replace": {"emergency": "lifeguard", "lifeguard": "base"}
  },
  {
    "status": "wiki-deprecated",
    "old": {"emergency": "lifeguard_platform"},
    "replace": {"emergency": "lifeguard", "lifeguard": "tower"}
  },
  {
    "status": "wiki-deprecated",
    "old": {"emergency": "lifeguard_tower"},
    "replace": {"emergency": "lifeguard", "lifeguard": "tower"}
  },
  {
    "status": "wiki-deprecated",
    "old": {"emergency": "water_rescue_station"},
    "replace": {"emergency": "water_rescue"}
  },
  {
    "status": "wiki-deprecated",
    "old": {"emergency": "lifeboat_station"},
    "replace": {"emergency": "water_rescue"}
  },
  {
    "status": "wiki-deprecated",
    "old": {"emergency": "ses_station"},
    "replace": {"emergency": "disaster_response"}
  },
  {
    "status": "wiki-deprecated",
    "old": {"emergency": "marine_rescue"},
    "replace": {"emergency": "water_rescue"}
  },
  {
    "old": {"entrance": "loading_dock"},
    "replace": {"amenity": "loading_dock"}
  },
  {
    "status": "wiki-deprecated",
    "old": {"entrance": "main_entrance"},
    "replace": {"entrance": "main"}
  },
  {
    "status": "wiki-deprecated",
    "old": {"escalator": "*"},
    "replace": {"highway": "steps", "conveying": "$1"}
  },
  {
    "old": {"fast_food": "pizza"},
    "replace": {"cuisine": "pizza"}
  },
  {
    "old": {"fast_food": "shawarma"},
    "replace": {"cuisine": "shawarma"}
  },
  {
    "old": {"fee": "0"},
    "replace": {"fee": "no"}
  },
  {
    "old": {"fee": "free"},
    "replace": {"fee": "no"}
  },
  {
    "old": {"fee": "Free"},
    "replace": {"fee": "no"}
  },
  {
    "status": "typo",
    "old": {"fee": "No"},
    "replace": {"fee": "no"}
  },
  {
    "old": {"fee": "none"},
    "replace": {"fee": "no"}
  },
  {
    "old": {"fee": "some"},
    "replace": {"fee": "yes"}
  },
  {
    "status": "typo",
    "old": {"fee": "Yes"},
    "replace": {"fee": "yes"}
  },
  {
    "status": "typo",
    "old": {"FIXME": "*"},
    "replace": {"fixme": "$1"}
  },
  {
    "status": "wiki-deprecated",
    "old": {"footway": "both"},
    "replace": {"sidewalk": "both"}
  },
  {
    "old": {"footway": "crossing", "highway": "cycleway"},
    "replace": {"cycleway": "crossing", "highway": "cycleway"}
  },
  {
    "status": "wiki-deprecated",
    "old": {"footway": "left"},
    "replace": {"sidewalk": "left"}
  },
  {
    "old": {"footway": "no"},
    "replace": {"sidewalk": "no"}
  },
  {
    "old": {"footway": "none"},
    "replace": {"sidewalk": "no"}
  },
  {
    "status": "wiki-deprecated",
    "old": {"footway": "right"},
    "replace": {"sidewalk": "right"}
  },
  {
    "old": {"footway": "separate"},
    "replace": {"sidewalk": "separate"}
  },
  {
    "old": {"amenity": "gambling", "gambling": "casino"},
    "replace": {"amenity": "casino"}
  },
  {
    "old": {"leisure": "amusement_arcade", "gambling": "*"},
    "replace": {"leisure": "adult_gaming_centre", "gambling": "$1"}
  },
  {
    "status": "typo",
    "old": {"gambling": "slot_machine"},
    "replace": {"gambling": "slot_machines"}
  },
  {
    "old": {"generator:source": "photovoltaic"},
    "replace": {"generator:source": "solar", "generator:method": "photovoltaic"}
  },
  {
    "old": {"generator:method": "solar"},
    "replace": {"generator:source": "solar"}
  },
  {
    "old": {"golf": "putting_green"},
    "replace": {"golf": "green"}
  },
  {
    "old": {"golf": "sand_trap"},
    "replace": {"golf": "bunker", "natural": "sand"}
  },
  {
    "old": {"golf": "tee_area"},
    "replace": {"golf": "tee"}
  },
  {
    "old": {"golf": "tee_box"},
    "replace": {"golf": "tee"}
  },
  {
    "status": "wiki-deprecated",
    "old": {"healthcare": "birthing_center"},
    "replace": {"healthcare": "birthing_centre"}
  },
  {
    "old": {"healthcare:speciality": "internist"},
    "replace": {"healthcare:speciality": "internal"}
  },
  {
    "status": "wiki-deprecated",
    "old": {"highway": "abandoned"},
    "replace": {"abandoned:highway": "*"}
  },
  {
    "status": "wiki-deprecated",
    "reference": {
      "key": "service",
      "value": "busway"
    },
    "old": {"highway": "service", "service": "busway"},
    "replace": {"highway": "busway"}
  },
  {
    "old": {"highway": "bridleway", "horse": "no"},
    "replace": {"highway": "path", "horse": "no"}
  },
  {
    "old": {"highway": "cycleway", "cycleway": "track"},
    "replace": {"highway": "cycleway"}
  },
  {
    "old": {"highway": "footway", "foot": "no"},
    "replace": {"highway": "path", "foot": "no"}
  },
  {
    "status": "wiki-deprecated",
    "old": {"highway": "ford"},
    "replace": {"ford": "*"}
  },
  {
    "old": {"highway": "platform"},
    "replace": {"highway": "platform", "public_transport": "platform"}
  },
  {
    "status": "wiki-deprecated",
    "old": {"highway": "stile"},
    "replace": {"barrier": "stile"}
  },
  {
    "status": "wiki-deprecated",
    "old": {"highway": "unsurfaced"},
    "replace": {"highway": "road", "surface": "unpaved"}
  },
  {
    "status": "wiki-deprecated",
     "old": {"historic": "archaeological_site", "site_type": "*"},
     "replace": {"historic": "archaeological_site", "archaeological_site": "$1"}
  },
  {
    "old": {"industrial": "brickworks"},
    "replace": {"industrial": "brickyard"}
  },
  {
    "status": "wiki-deprecated",
    "old": {"industrial": "gas"},
    "replace": {"utility": "gas"}
  },
  {
    "status": "wiki-deprecated",
    "old": {"information": "citymap"},
    "replace": {"tourism": "information", "information": "map", "map_type": "street", "map_size": "city"}
  },
  {
    "status": "wiki-deprecated",
    "old": {"information": "hikingmap"},
    "replace": {"tourism": "information", "information": "map", "map_type": "topo", "hiking": "yes"}
  },
  {
    "old": {"information": "bicyclemap"},
    "replace": {"tourism": "information", "information": "map", "map_type": "topo", "bicyle": "yes"}
  },
  {
    "old": {"information": "nature"},
    "replace": {"tourism": "information", "information": "board", "board_type": "nature"}
  },
  {
    "old": {"information": "history"},
    "replace": {"tourism": "information", "information": "board", "board_type": "history"}
  },
  {
    "old": {"information": "wild_life"},
    "replace": {"tourism": "information", "information": "board", "board_type": "wildlife"}
  },
  {
    "old": {"information": "wildlife"},
    "replace": {"tourism": "information", "information": "board", "board_type": "wildlife"}
  },
  {
    "old": {"information": "board", "board_type": "map"},
    "replace": {"tourism": "information", "information": "map"}
  },
  {
    "old": {"internet_access": "public"},
    "replace": {"internet_access": "yes", "internet_access:fee": "no"}
  },
  {
    "old": {"internet_access": "wifi"},
    "replace": {"internet_access": "wlan"}
  },
{
    "old": {"internet_access": "wi-fi"},
    "replace": {"internet_access": "wlan"}
  },
{
    "old": {"internet_access": "WLAN"},
    "replace": {"internet_access": "wlan"}
  },
  {
    "old": {"internet_access:fee": "0"},
    "replace": {"internet_access:fee": "no"}
  },
  {
    "old": {"internet_access:fee": "free"},
    "replace": {"internet_access:fee": "no"}
  },
  {
    "old": {"internet_access:fee": "Free"},
    "replace": {"internet_access:fee": "no"}
  },
  {
    "old": {"internet_access:fee": "No"},
    "replace": {"internet_access:fee": "no"}
  },
  {
    "status": "wiki-deprecated",
    "reference": {
      "key": "internet_access"
    },
    "old": {"internet_access:name": "*"},
    "replace": {"internet_access:ssid": "$1"}
  },
  {
    "status": "wiki-deprecated",
    "reference": {
      "key": "internet_access"
    },
    "old": {"internet_access:type": "*"},
    "replace": {"internet_access": "$1"}
  },
  {
    "old": {"kerb": "dropped"},
    "replace": {"kerb": "lowered"}
  },
  {
    "old": {"kerb": "flat"},
    "replace": {"kerb": "flush"}
  },
  {
    "status": "typo",
    "old": {"lamp_mount": "bent mast"},
    "replace": {"lamp_mount": "bent_mast"}
  },
  {
    "old": {"lamp_mount": "wall mounted"},
    "replace": {"lamp_mount": "wall"}
  },
  {
    "old": {"landcover": "flowerbed"},
    "replace": {"landuse": "flowerbed"}
  },
  {
    "old": {"landuse": "basin"},
    "replace": {"natural": "water", "water": "basin"}
  },
  {
    "old": {"landuse": "conservation"},
    "replace": {"boundary": "protected_area"}
  },
  {
    "status": "wiki-deprecated",
    "old": {"landuse": "field"},
    "replace": {"landuse": "farmland"}
  },
  {
    "old": {"landuse": "garden"},
    "replace": {"leisure": "garden"}
  },
  {
    "status": "wiki-deprecated",
    "old": {"landuse": "pond"},
    "replace": {"natural": "water", "water": "pond"}
  },
  {
    "old": {"landuse": "port"},
    "replace": {"landuse": "industrial", "industrial": "port"}
  },
  {
    "status": "wiki-deprecated",
    "old": {"landuse": "reservoir"},
    "replace": {"natural": "water", "water": "reservoir"}
  },
  {
     "old": {"landuse": "reservoir", "reservoir_type": "tailings", "natural": "water", "water": "reservoir"},
     "replace": {"man_made": "tailings_pond"}
  },
  {
     "old": {"landuse": "reservoir", "reservoir_type": "tailings"},
     "replace": {"man_made": "tailings_pond"}
  },
  {
    "status": "wiki-deprecated",
    "old": {"landuse": "school"},
    "replace": {"landuse": "education"}
  },
  {
    "status": "wiki-deprecated",
    "old": {"landuse": "wood"},
    "replace": {"natural": "wood"}
  },
  {
    "status": "wiki-deprecated",
    "old": {"leisure": "beach"},
    "replace": {"natural": "beach"}
  },
  {
    "old": {"leisure": "bingo"},
    "replace": {"amenity": "gambling", "gambling": "bingo"}
  },
  {
    "status": "wiki-deprecated",
    "old": {"leisure": "club"},
    "replace": {"club": "*"}
  },
  {
    "status": "wiki-deprecated",
    "old": {"leisure": "gambling"},
    "replace": {"amenity": "gambling"}
  },
  {
    "status": "wiki-deprecated",
    "reference": {
      "key": "sport",
      "value": "hockey"
    },
    "old": {"leisure": "ice_rink", "sport": "hockey"},
    "replace": {"leisure": "ice_rink", "sport": "ice_hockey"}
  },
  {
    "status": "wiki-deprecated",
    "reference": {
      "key": "sport",
      "value": "skating"
    },
    "old": {"leisure": "ice_rink", "sport": "skating"},
    "replace": {"leisure": "ice_rink", "sport": "ice_skating"}
  },
  {
    "status": "wiki-deprecated",
    "old": {"leisure": "maze"},
    "replace": {"attraction": "maze"}
  },
  {
    "old": {"leisure": "swimming_pool", "swimming_pool": "hot_tub"},
    "replace": {"leisure": "hot_tub"}
  },
  {
    "status": "wiki-deprecated",
    "old": {"leisure": "table_tennis_table"},
    "replace": {"leisure": "pitch", "sport": "table_tennis"}
  },
  {
    "status": "wiki-deprecated",
    "old": {"leisure": "video_arcade"},
    "replace": {"leisure": "amusement_arcade"}
  },
  {
    "status": "typo",
    "old": {"Level": "*"},
    "replace": {"level": "$1"}
  },
  {
    "status": "typo",
    "old": {"LEVEL": "*"},
    "replace": {"level": "$1"}
  },
  {
    "status": "wiki-deprecated",
    "reference": {
      "key": "levels"
    },
    "old": {"levels": "*", "building": "*"},
    "replace": {"building:levels": "$1", "building": "$2"}
  },
  {
    "status": "wiki-deprecated",
    "old": {"man_made": "cut_line"},
    "replace": {"man_made": "cutline"}
  },
  {
    "old": {"man_made": "flower_bed"},
    "replace": {"landuse": "flowerbed"}
  },
  {
    "old": {"man_made": "flowerbed"},
    "replace": {"landuse": "flowerbed"}
  },
  {
    "old": {"man_made": "fuel_storage_tank"},
    "replace": {"man_made": "storage_tank", "content": "fuel"}
  },
  {
    "old": {"man_made": "gas_well"},
    "replace": {"man_made": "petroleum_well", "substance": "gas"}
  },
  {
    "status": "wiki-deprecated",
    "old": {"man_made": "jetty"},
    "replace": {"man_made": "pier"}
  },
  {
    "status": "wiki-deprecated",
    "old": {"man_made": "MDF"},
    "replace": {"telecom": "exchange"}
  },
  {
    "old": {"man_made": "oil_tank"},
    "replace": {"man_made": "storage_tank", "content": "oil"}
  },
  {
    "status": "wiki-deprecated",
    "old": {"man_made": "oil_well"},
    "replace": {"man_made": "petroleum_well", "substance": "oil"}
  },
  {
    "status": "wiki-deprecated",
    "old": {"man_made": "telephone_exchange"},
    "replace": {"telecom": "exchange"}
  },
  {
    "old": {"man_made": "village_pump"},
    "replace": {"man_made": "water_well"}
  },
  {
    "old": {"man_made": "wastewater_tank"},
    "replace": {"man_made": "storage_tank", "content": "wastewater"}
  },
  {
    "status": "wiki-deprecated",
    "old": {"man_made": "water_tank"},
    "replace": {"man_made": "storage_tank", "content": "water"}
  },
  {
    "old": {"man_made": "weighing_scale"},
    "replace": {"amenity": "weighbridge"}
  },
  {
    "old": {"man_made": "well"},
    "replace": {"man_made": "water_well"}
  },
  {
    "old": {"man_made": "winery"},
    "replace": {"craft": "winery"}
  },
  {
    "status": "typo",
    "old": {"maxage": "*"},
    "replace": {"max_age": "$1"}
  },
  {
    "old": {"memorial": "plate"},
    "replace": {"memorial": "plaque"}
  },
  {
    "status": "wiki-deprecated",
    "old": {"memorial:type": "stolperstein"},
    "replace": {"memorial": "stolperstein"}
  },
  {
    "old": {"memorial:text": "*"},
    "replace": {"inscription": "$1"}
  },
  {
    "old": {"men": "*"},
    "replace": {"male": "$1"}
  },
  {
    "status": "typo",
    "old": {"minage": "*"},
    "replace": {"min_age": "$1"}
  },
  {
    "old": {"mining_resource": "*"},
    "replace": {"resource": "$1"}
  },
  {
    "old": {"museum_type": "private"},
    "replace": {"operator:type": "private"}
  },
  {
    "old": {"museum_type": "public"},
    "replace": {"operator:type": "public"}
  },
  {
    "status": "wiki-deprecated",
    "old": {"natural": "marsh"},
    "replace": {"natural": "wetland", "wetland": "marsh"}
  },
  {
     "old": {"natural": "water", "water": "reservoir", "reservoir_type": "tailings"},
     "replace": {"man_made": "tailings_pond"}
  },
  {
    "old": {"natural": "waterfall"},
    "replace": {"waterway": "waterfall"}
  },
  {
    "status": "typo",
    "old": {"NOTE": "*"},
    "replace": {"note": "$1"}
  },
  {
    "status": "wiki-deprecated",
    "old": {"office": "administrative"},
    "replace": {"office": "government"}
  },
  {
    "old": {"office": "consultant"},
    "replace": {"office": "consulting"}
  },
  {
    "status": "wiki-deprecated",
    "old": {"office": "real_estate"},
    "replace": {"office": "estate_agent"}
  },
  {
    "old": {"oneway": "1"},
    "replace": {"oneway": "yes"}
  },
  {
    "status": "typo",
    "old": {"operator:type": "goverment"},
    "replace": {"operator:type": "government"}
  },
  {
    "status": "typo",
    "old": {"operator:type": "privado"},
    "replace": {"operator:type": "private"}
  },
  {
    "status": "typo",
    "old": {"operator:type": "Private"},
    "replace": {"operator:type": "private"}
  },
  {
    "status": "typo",
    "old": {"operator:type": "Public"},
    "replace": {"operator:type": "public"}
  },
  {
    "status": "typo",
    "old": {"operator:type": "publico"},
    "replace": {"operator:type": "public"}
  },
  {
    "old": {"operator:type": "unknown"}
  },
  {
    "old": {"amenity": "parking", "parking": "covered"},
    "replace": {"amenity": "parking", "covered": "yes"}
  },
  {
    "old": {"amenity": "parking", "parking": "customers"},
    "replace": {"amenity": "parking", "access": "customers"}
  },
  {
    "old": {"parking": "entrance"},
    "replace": {"amenity": "parking_entrance"}
  },
  {
    "old": {"amenity": "parking", "parking": "park_and_ride"},
    "replace": {"amenity": "parking", "park_ride": "yes"}
  },
  {
    "old": {"amenity": "parking", "parking": "private"},
    "replace": {"amenity": "parking", "access": "private"}
  },
  {
    "old": {"amenity": "parking", "parking": "street"},
    "replace": {"amenity": "parking", "parking": "lane"}
  },
  {
    "status": "wiki-deprecated",
    "old": {"parking:orientation": "*"},
    "replace": {"orientation": "$1"}
  },
  {
    "status": "wiki-deprecated",
    "old": {"place_name": "*"},
    "replace": {"name": "$1"}
  },
  {
    "status": "wiki-deprecated",
    "old": {"pole": "transition"},
    "replace": {"location:transition": "yes"}
  },
  {
    "status": "wiki-deprecated",
    "reference": {
      "key": "branch:type"
    },
    "old": {"pole:type": "branch", "branch:type": "cross"},
    "replace": {"line_management": "cross"}
  },
  {
    "status": "wiki-deprecated",
    "reference": {
      "key": "branch:type"
    },
    "old": {"pole:type": "branch", "branch:type": "loop"},
    "replace": {"line_management": "split"}
  },
  {
    "status": "wiki-deprecated",
    "reference": {
      "key": "branch:type"
    },
    "old": {"pole:type": "branch", "branch:type": "split"},
    "replace": {"line_management": "split"}
  },
  {
    "status": "wiki-deprecated",
    "reference": {
      "key": "branch:type"
    },
    "old": {"pole:type": "branch", "branch:type": "tap"},
    "replace": {"line_management": "branch"}
  },
  {
    "status": "wiki-deprecated",
    "reference": {
      "key": "pole:type"
    },
    "old": {"pole:type": "termination"},
    "replace": {"line_management": "termination"}
  },
  {
    "old": {"postcode": "*"},
    "replace": {"addr:postcode": "$1"}
  },
  {
    "status": "wiki-deprecated",
    "old": {"power": "busbar"},
    "replace": {"power": "line", "line": "busbar"}
  },
  {
    "status": "wiki-deprecated",
    "reference": {
      "key": "power",
      "value": "line"
    },
    "old": {"power": "line", "location": "underground"},
    "replace": {"power": "cable", "location": "underground"}
  },
  {
    "status": "wiki-deprecated",
    "old": {"power": "marker"},
    "replace": {"marker": "*", "utility": "power"}
  },
  {
    "status": "wiki-deprecated",
    "old": {"power": "sub_station"},
    "replace": {"power": "substation"}
  },
  {
    "status": "wiki-deprecated",
    "old": {"power": "underground_cable"},
    "replace": {"power": "cable", "location": "underground"}
  },
  {
    "status": "wiki-deprecated",
    "old": {"power_source": "*"},
    "replace": {"generator:source": "$1"}
  },
  {
    "status": "wiki-deprecated",
    "old": {"power_rating": "*"},
    "replace": {"generator:output": "$1"}
  },
  {
    "old": {"public_transport": "station", "aerialway": "yes"},
    "replace": {"public_transport": "station", "aerialway": "station"}
  },
  {
    "old": {"pump": "hand_pump"},
    "replace": {"pump": "manual"}
  },
  {
    "old": {"pump": "electrical_pump"},
    "replace": {"pump": "powered"}
  },
  {
    "old": {"pump": "no_pump"},
    "replace": {"pump": "no"}
  },
  {
    "old": {"pump": "power"},
    "replace": {"pump": "powered"}
  },
  {
    "status": "wiki-deprecated",
    "reference": {
      "key": "abandoned",
      "value": "yes"
    },
    "old": {"railway": "*", "abandoned": "yes"},
    "replace": {"railway": "abandoned", "abandoned:railway": "$1"}
  },
  {
    "old": {"railway": "*", "disused": "yes"},
    "replace": {"railway": "disused", "disused:railway": "$1"}
  },
  {
    "old": {"railway": "platform"},
    "replace": {"railway": "platform", "public_transport": "platform"}
  },
  {
    "old": {"railway": "station"},
    "replace": {"railway": "station", "public_transport": "station"}
  },
  {
    "old": {"railway": "tram_stop"},
    "replace": {"railway": "tram_stop", "public_transport": "stop_position", "tram": "yes"}
  },
  {
    "old": {"recommended_speed": "*"},
    "replace": {"maxspeed:advisory": "$1"}
  },
  {
    "old": {"recommended_speed:backward": "*"},
    "replace": {"maxspeed:advisory:backward": "$1"}
  },
  {
    "old": {"recommended_speed:forward": "*"},
    "replace": {"maxspeed:advisory:forward": "$1"}
  },
  {
    "status": "typo",
    "old": {"roof:color": "*"},
    "replace": {"roof:colour": "$1"}
  },
  {
    "status": "typo",
    "old": {"roof:shape": "half_hipped"},
    "replace": {"roof:shape": "half-hipped"}
  },
  {
    "status": "wiki-deprecated",
    "old": {"route": "ncn"},
    "replace": {"route": "bicycle", "network": "ncn"}
  },
  {
    "status": "typo",
    "old": {"service": "drive_through"},
    "replace": {"service": "drive-through"}
  },
  {
    "status": "wiki-deprecated",
    "old": {"shop": "adult"},
    "replace": {"shop": "erotic"}
  },
  {
    "status": "wiki-deprecated",
    "old": {"shop": "antique"},
    "replace": {"shop": "antiques"}
  },
  {
    "status": "wiki-deprecated",
    "old": {"shop": "auto_parts"},
    "replace": {"shop": "car_parts"}
  },
  {
    "old": {"shop": "baby"},
    "replace": {"shop": "baby_goods"}
  },
  {
    "status": "wiki-deprecated",
    "old": {"shop": "baby_care"},
    "replace": {"shop": "baby_goods"}
  },
  {
    "status": "wiki-deprecated",
    "old": {"shop": "betting"},
    "replace": {"shop": "bookmaker"}
  },
  {
    "status": "wiki-deprecated",
    "old": {"shop": "boutique"},
    "replace": {"shop": "clothes"}
  },
  {
    "status": "wiki-deprecated",
    "old": {"shop": "cafe"},
    "replace": {"amenity": "cafe"}
  },
  {
    "old": {"shop": "clothes", "clothes": "second_hand"},
    "replace": {"shop": "clothes", "second_hand": "yes"}
  },
  {
    "status": "wiki-deprecated",
    "old": {"shop": "dive"},
    "replace": {"shop": "scuba_diving"}
  },
  {
    "old": {"shop": "fashion"},
    "replace": {"shop": "clothes"}
  },
  {
    "status": "wiki-deprecated",
    "old": {"shop": "fish"},
    "replace": {"shop": "seafood"}
  },
  {
    "status": "wiki-deprecated",
    "old": {"shop": "fishmonger"},
    "replace": {"shop": "seafood"}
  },
  {
    "status": "wiki-deprecated",
    "old": {"shop": "furnace"},
    "replace": {"shop": "fireplace"}
  },
  {
    "status": "wiki-deprecated",
    "old": {"shop": "gallery"},
    "replace": {"shop": "art"}
  },
  {
    "old": {"shop": "general_store"},
    "replace": {"shop": "general"}
  },
  {
    "old": {"shop": "insurance"},
    "replace": {"office": "insurance"}
  },
  {
    "status": "wiki-deprecated",
    "old": {"shop": "jewellery"},
    "replace": {"shop": "jewelry"}
  },
  {
    "old": {"shop": "luggage"},
    "replace": {"shop": "bag"}
  },
  {
    "old": {"shop": "mattress"},
    "replace": {"shop": "bed"}
  },
  {
    "old": {"shop": "money_transfer"},
    "replace": {"amenity": "money_transfer"}
  },
  {
    "status": "wiki-deprecated",
    "old": {"shop": "moneylender"},
    "replace": {"shop": "money_lender"}
  },
  {
    "status": "wiki-deprecated",
    "old": {"shop": "office_supplies"},
    "replace": {"shop": "stationery"}
  },
  {
    "status": "wiki-deprecated",
    "old": {"shop": "organic"},
    "replace": {"shop": "yes", "organic": "only"}
  },
  {
    "status": "wiki-deprecated",
    "old": {"shop": "perfume"},
    "replace": {"shop": "perfumery"}
  },
  {
    "old": {"shop": "photo_studio"},
    "replace": {"craft": "photographer"}
  },
  {
    "status": "wiki-deprecated",
    "old": {"shop": "tickets"},
    "replace": {"shop": "ticket"}
  },
  {
    "status": "wiki-deprecated",
    "old": {"shop": "underwear"},
    "replace": {"shop": "clothes", "clothes": "underwear"}
  },
  {
    "old": {"shop": "winery"},
    "replace": {"craft": "winery"}
  },
  {
    "status": "wiki-deprecated",
    "reference": {
      "key": "sloped_curb"
    },
    "old": {"sloped_curb": "0"},
    "replace": {"kerb": "flush"}
  },
  {
    "status": "wiki-deprecated",
    "reference": {
      "key": "sloped_curb"
    },
    "old": {"sloped_curb": "0.00"},
    "replace": {"kerb": "flush"}
  },
  {
    "status": "wiki-deprecated",
    "reference": {
      "key": "sloped_curb"
    },
    "old": {"sloped_curb": "0.01"},
    "replace": {"kerb": "lowered", "kerb:height": "1 cm"}
  },
  {
    "status": "wiki-deprecated",
    "reference": {
      "key": "sloped_curb"
    },
    "old": {"sloped_curb": "0.02"},
    "replace": {"kerb": "lowered", "kerb:height": "2 cm"}
  },
  {
    "status": "wiki-deprecated",
    "reference": {
      "key": "sloped_curb"
    },
    "old": {"sloped_curb": "0.03"},
    "replace": {"kerb": "lowered", "kerb:height": "3 cm"}
  },
  {
    "status": "wiki-deprecated",
    "reference": {
      "key": "sloped_curb"
    },
    "old": {"sloped_curb": "at_grade"},
    "replace": {"kerb": "flush"}
  },
  {
    "old": {"sloped_curb": "both"},
    "replace": {"kerb": "lowered"}
  },
  {
    "status": "wiki-deprecated",
    "reference": {
      "key": "sloped_curb"
    },
    "old": {"sloped_curb": "flush"},
    "replace": {"kerb": "flush"}
  },
  {
    "status": "wiki-deprecated",
    "reference": {
      "key": "sloped_curb"
    },
    "old": {"sloped_curb": "low"},
    "replace": {"kerb": "lowered"}
  },
  {
    "status": "wiki-deprecated",
    "reference": {
      "key": "sloped_curb"
    },
    "old": {"sloped_curb": "no"},
    "replace": {"kerb": "raised"}
  },
  {
    "old": {"sloped_curb": "yes"},
    "replace": {"kerb": "lowered"}
  },
  {
    "status": "typo",
    "old": {"sport": "horse_shoes"},
    "replace": {"sport": "horseshoes"}
  },
  {
    "status": "typo",
    "old": {"sport": "horseshoe"},
    "replace": {"sport": "horseshoes"}
  },
  {
    "status": "typo",
    "old": {"sport": "shuffle_board"},
    "replace": {"sport": "shuffleboard"}
  },
  {
    "status": "wiki-deprecated",
    "old": {"sport": "team_handball"},
    "replace": {"sport": "handball"}
  },
  {
    "old": {"station": "light_rail"},
    "replace": {"station": "light_rail", "light_rail": "yes"}
  },
  {
    "old": {"station": "monorail"},
    "replace": {"station": "monorail", "monorail": "yes"}
  },
  {
    "old": {"station": "subway"},
    "replace": {"station": "subway", "subway": "yes"}
  },
  {
    "old": {"station": "train"},
    "replace": {"station": "train", "train": "yes"}
  },
  {
    "status": "wiki-deprecated",
    "reference": {
      "key": "stream",
      "value": "intermittent"
    },
    "old": {"stream": "intermittent", "waterway": "stream"},
    "replace": {"intermittent": "yes", "waterway": "stream"}
  },
  {
    "old": {"street_cabinet": "broadband"},
    "replace": {"utility": "telecom"}
  },
  {
    "status": "wiki-deprecated",
    "reference": {
      "key": "man_made",
      "value": "street_cabinet"
    },
    "old": {"street_cabinet": "cable_tv"},
    "replace": {"utility": "television"}
  },
  {
    "old": {"street_cabinet": "communications"},
    "replace": {"utility": "telecom"}
  },
  {
    "status": "wiki-deprecated",
    "reference": {
      "key": "man_made",
      "value": "street_cabinet"
    },
    "old": {"street_cabinet": "gas"},
    "replace": {"utility": "gas"}
  },
  {
    "status": "wiki-deprecated",
    "reference": {
      "key": "man_made",
      "value": "street_cabinet"
    },
    "old": {"street_cabinet": "power"},
    "replace": {"utility": "power"}
  },
  {
    "status": "wiki-deprecated",
    "reference": {
      "key": "man_made",
      "value": "street_cabinet"
    },
    "old": {"street_cabinet": "street_lighting"},
    "replace": {"utility": "street_lighting"}
  },
  {
    "status": "wiki-deprecated",
    "reference": {
      "key": "man_made",
      "value": "street_cabinet"
    },
    "old": {"street_cabinet": "telecom"},
    "replace": {"utility": "telecom"}
  },
  {
    "status": "typo",
    "old": {"survey_date": "*"},
    "replace": {"survey:date": "$1"}
  },
  {
    "old": {"sustenance": "cafe"},
    "replace": {"amenity": "cafe"}
  },
  {
    "status": "typo",
    "old": {"theatre:type": "amphitheatre"},
    "replace": {"theatre:type": "amphi"}
  },
  {
    "old": {"todo": "*"},
    "replace": {"fixme": "$1"}
  },
  {
    "old": {"TODO": "*"},
    "replace": {"fixme": "$1"}
  },
  {
    "old": {"toilets:disposal": "longdrop"},
    "replace": {"toilets:disposal": "pitlatrine"}
  },
  {
    "old": {"toilets:disposal": "pit_latrine"},
    "replace": {"toilets:disposal": "pitlatrine"}
  },
  {
    "old": {"toilets:type": "flush"},
    "replace": {"toilets:disposal": "flush"}
  },
  {
    "old": {"toilets:type": "pit"},
    "replace": {"toilets:disposal": "pitlatrine"}
  },
  {
    "old": {"toilets:type": "pitlatrine"},
    "replace": {"toilets:disposal": "pitlatrine"}
  },
  {
    "old": {"toilets:type": "pit latrine"},
    "replace": {"toilets:disposal": "pitlatrine"}
  },
  {
    "old": {"tourism": "bed_and_breakfast"},
    "replace": {"tourism": "guest_house", "guest_house": "bed_and_breakfast"}
  },
  {
    "old": {"tourism": "picnic_table"},
    "replace": {"leisure": "picnic_table"}
  },
  {
    "status": "wiki-deprecated",
    "old": {"tourism": "resort"},
    "replace": {"leisure": "resort"}
  },
  {
    "old": {"tower:type": "power"},
    "replace": {"power": "tower"}
  },
  {
    "status": "wiki-deprecated",
    "old": {"tower:type": "anchor"},
    "replace": {"line_attachment": "anchor"}
  },
  {
    "status": "wiki-deprecated",
    "reference": {
      "key": "branch:type"
    },
    "old": {"tower:type": "branch", "branch:type": "cross"},
    "replace": {"line_management": "cross"}
  },
  {
    "status": "wiki-deprecated",
    "reference": {
      "key": "branch:type"
    },
    "old": {"tower:type": "branch", "branch:type": "loop"},
    "replace": {"line_management": "split"}
  },
  {
    "status": "wiki-deprecated",
    "reference": {
      "key": "branch:type"
    },
    "old": {"tower:type": "branch", "branch:type": "split"},
    "replace": {"line_management": "split"}
  },
  {
    "status": "wiki-deprecated",
    "reference": {
      "key": "branch:type"
    },
    "old": {"tower:type": "branch", "branch:type": "tap"},
    "replace": {"line_management": "branch"}
  },
  {
    "status": "wiki-deprecated",
    "old": {"tower:type": "suspension"},
    "replace": {"line_attachment": "suspension"}
  },
  {
    "old": {"tower:type": "termination"},
    "replace": {"line_management": "termination"}
  },
  {
    "status": "wiki-deprecated",
    "old": {"tower:type": "transposing"},
    "replace": {"line_management": "transpose"}
  },
  {
    "old": {"townhall:village": "yes"},
    "replace": {"amenity": "townhall", "townhall:type": "village"}
  },
  {
    "status": "wiki-deprecated",
    "old": {"transformer": "auto"},
    "replace": {"transformer": "yes", "windings:auto": "yes"}
  },
  {
    "old": {"transformer": "minor_distribution"},
    "replace": {"transformer": "distribution"}
  },
  {
    "status": "wiki-deprecated",
    "old": {"transformer": "traction"},
    "replace": {"transformer": "main"}
  },
  {
    "old": {"tunnel": "1"},
    "replace": {"tunnel": "yes"}
  },
  {
    "status": "wiki-deprecated",
    "reference": {
      "key": "type"
    },
    "old": {"type": "audio", "amenity": "studio"},
    "replace": {"studio": "audio", "amenity": "studio"}
  },
  {
    "old": {"type": "broadleaved"},
    "replace": {"leaf_type": "broadleaved"}
  },
  {
    "status": "wiki-deprecated",
    "reference": {
      "key": "type"
    },
    "old": {"natural": "volcano", "type": "caldera"},
    "replace": {"natural": "volcano", "volcano:type": "caldera"}
  },
  {
    "status": "wiki-deprecated",
    "reference": {
      "key": "type"
    },
    "old": {"type": "conifer"},
    "replace": {"leaf_type": "needleleaved"}
  },
  {
    "status": "wiki-deprecated",
    "reference": {
      "key": "type"
    },
    "old": {"type": "deciduous"},
    "replace": {"leaf_cycle": "deciduous"}
  },
  {
    "status": "wiki-deprecated",
    "reference": {
      "key": "type"
    },
    "old": {"natural": "volcano", "type": "extinct"},
    "replace": {"natural": "volcano", "volcano:status": "extinct"}
  },
  {
    "status": "wiki-deprecated",
    "reference": {
      "key": "type"
    },
    "old": {"type": "gas", "man_made": "pipeline"},
    "replace": {"substance": "gas", "man_made": "pipeline"}
  },
  {
    "status": "wiki-deprecated",
    "reference": {
      "key": "type"
    },
    "old": {"type": "gas", "man_made": "pumping_rig"},
    "replace": {"substance": "gas", "man_made": "pumping_rig"}
  },
  {
    "status": "wiki-deprecated",
    "reference": {
      "key": "type"
    },
    "old": {"type": "gas", "pipeline": "*"},
    "replace": {"substance": "gas", "pipeline": "$1"}
  },
  {
    "status": "wiki-deprecated",
    "reference": {
      "key": "type"
    },
    "old": {"type": "oil", "man_made": "pipeline"},
    "replace": {"substance": "oil", "man_made": "pipeline"}
  },
  {
    "status": "wiki-deprecated",
    "reference": {
      "key": "type"
    },
    "old": {"type": "oil", "man_made": "pumping_rig"},
    "replace": {"substance": "oil", "man_made": "pumping_rig"}
  },
  {
    "status": "wiki-deprecated",
    "reference": {
      "key": "type"
    },
    "old": {"type": "oil", "pipeline": "*"},
    "replace": {"substance": "oil", "pipeline": "$1"}
  },
  {
    "status": "wiki-deprecated",
    "reference": {
      "key": "type"
    },
    "old": {"natural": "volcano", "type": "scoria"},
    "replace": {"natural": "volcano", "volcano:type": "scoria"}
  },
  {
    "status": "wiki-deprecated",
    "reference": {
      "key": "type"
    },
    "old": {"natural": "volcano", "type": "shield"},
    "replace": {"natural": "volcano", "volcano:type": "shield"}
  },
  {
    "status": "wiki-deprecated",
    "reference": {
      "key": "type"
    },
    "old": {"natural": "volcano", "type": "strato"},
    "replace": {"natural": "volcano", "volcano:type": "stratovolcano"}
  },
  {
    "status": "wiki-deprecated",
    "reference": {
      "key": "type"
    },
    "old": {"type": "video", "amenity": "studio"},
    "replace": {"studio": "video", "amenity": "studio"}
  },
  {
    "status": "wiki-deprecated",
    "reference": {
      "key": "type"
    },
    "old": {"type": "water", "man_made": "pipeline"},
    "replace": {"substance": "water", "man_made": "pipeline"}
  },
  {
    "status": "wiki-deprecated",
    "reference": {
      "key": "type"
    },
    "old": {"type": "water", "man_made": "reservoir_covered"},
    "replace": {"content": "water", "man_made": "reservoir_covered"}
  },
  {
    "status": "wiki-deprecated",
    "reference": {
      "key": "type"
    },
    "old": {"type": "water", "pipeline": "*"},
    "replace": {"substance": "water", "pipeline": "$1"}
  },
  {
    "status": "wiki-deprecated",
    "old": {"unnamed": "*"},
    "replace": {"noname": "$1"}
  },
  {
    "old": {"vhf_channel": "*"},
    "replace": {"vhf": "$1"}
  },
  {
    "old": {"volcano": "extinct"},
    "replace": {"volcano:status": "extinct"}
  },
  {
    "status": "wiki-deprecated",
    "reference": {
      "key": "voltage-high"
    },
    "old": {"voltage-high": "*", "power": "transformer"},
    "replace": {"voltage:secondary":"$1", "power": "transformer"}
  },
  {
    "status": "wiki-deprecated",
    "reference": {
      "key": "voltage-low"
    },
    "old": {"voltage-low": "*", "power": "transformer"},
    "replace": {"voltage:primary":"$1", "power": "transformer"}
  },
  {
    "old": {"wall_type": "noise_barrier"},
    "replace": {"wall": "noise_barrier"}
  },
  {
    "status": "wiki-deprecated",
    "old": {"water": "intermittent"},
    "replace": {"natural": "water", "intermittent": "yes"}
  },
  {
    "old": {"water": "riverbank"},
    "replace": {"natural": "water", "water": "river"}
  },
  {
    "status": "wiki-deprecated",
    "old": {"water": "tidal"},
    "replace": {"natural": "water", "tidal": "yes"}
  },
  {
    "status": "wiki-deprecated",
    "old": {"waterway": "lock"},
    "replace": {"waterway": "canal", "lock": "yes"}
  },
  {
    "status": "wiki-deprecated",
    "old": {"waterway": "riverbank"},
    "replace": {"natural": "water", "water": "river"}
  },
  {
    "old": {"waterway:vhf_channel": "*"},
    "replace": {"vhf": "$1"}
  },
  {
    "old": {"wifi": "yes"},
    "replace": {"internet_access": "wlan"}
  },
  {
    "old": {"wifi": "free"},
    "replace": {"internet_access": "wlan", "internet_access:fee": "no"}
  },
  {
    "old": {"women": "*"},
    "replace": {"female": "$1"}
  },
  {
    "status": "wiki-deprecated",
    "reference": {
      "key": "wood"
    },
    "old": {"wood": "coniferous"},
    "replace": {"leaf_type": "needleleaved"}
  },
  {
    "status": "wiki-deprecated",
    "reference": {
      "key": "wood"
    },
    "old": {"wood": "deciduous"},
    "replace": {"leaf_cycle": "deciduous"}
  },
  {
    "status": "wiki-deprecated",
    "reference": {
      "key": "wood"
    },
    "old": {"wood": "evergreen"},
    "replace": {"leaf_cycle": "evergreen"}
  },
  {
    "status": "wiki-deprecated",
    "reference": {
      "key": "wood"
    },
    "old": {"wood": "mixed"},
    "replace": {"leaf_cycle": "mixed", "leaf_type": "mixed"}
  },
  {
    "old": {"communication": "pole"},
    "replace": {"man_made": "utility_pole", "utility": "telecom"}
  },
  {
    "old": {"telephone": "pole"},
    "replace": {"man_made": "utility_pole", "utility": "telecom"}
  },
  {
    "old": {"telecom": "pole"},
    "replace": {"man_made": "utility_pole", "utility": "telecom"}
  },
  {
    "old": {"pstn": "pole"},
    "replace": {"man_made": "utility_pole", "utility": "telecom"}
  }
]
